[{"OBJECT_NAME":"STARLINK-2140","OBJECT_ID":"2021-017J","EPOCH":"2026-03-10T00:00:02.999808","MEAN_MOTION":15.16976713,"ECCENTRICITY":0.00018722,"INCLINATION":53.0978,"RA_OF_ASC_NODE":214.9627,"ARG_OF_PERICENTER":95.1746,"MEAN_ANOMALY":91.6556,"EPHEMERIS_TYPE":0,"CLASSIFICATION_TYPE":"U","NORAD_CAT_ID":47730,"ELEMENT_SET_NO":999,"REV_AT_EPOCH":579,"BSTAR":0.0030213884,"MEAN_MOTION_DOT":0.00060583,"MEAN_MOTION_DDOT":0},{"OBJECT_NAME":"OBJECT K","OBJECT_ID":"2021-102K","EPOCH":"2026-03-09T15:22:06.576960","MEAN_MOTION":15.21189011,"ECCENTRICITY":0.0018364,"INCLINATION":97.3391,"RA_OF_ASC_NODE":112.3952,"ARG_OF_PERICENTER":201.1729,"MEAN_ANOMALY":158.8749,"EPHEMERIS_TYPE":0,"CLASSIFICATION_TYPE":"U","NORAD_CAT_ID":49404,"ELEMENT_SET_NO":999,"REV_AT_EPOCH":23874,"BSTAR":0.00026722,"MEAN_MOTION_DOT":5.916e-5,"MEAN_MOTION_DDOT":0}]
